TIANYAN 02              
1 44882U 19093D   26116.92092838  .00007664  00000+0  54958-3 0  9991
2 44882  97.7912 211.2549 0013961 189.7856 170.3100 15.04565506344900
CBERS 4A                
1 44883U 19093E   26116.89816856  .00001206  00000+0  15985-3 0  9995
2 44883  97.7521 185.7789 0002335  31.5871 328.5482 14.81619277343483
WEILAI 1R               
1 44884U 19093F   26116.97010124  .00005147  00000+0  41589-3 0  9996
2 44884  97.7830 206.8093 0013496 200.5660 159.5022 15.00191115344744
FLORIPASAT-1            
1 44885U 19093G   26116.98262128  .00006974  00000+0  51781-3 0  9995
2 44885  97.7898 210.8696 0010207 235.9795 124.0461 15.03318608344959
SHUNTIAN                
1 44886U 19093H   26116.87273716  .00002720  00000+0  25453-3 0  9991
2 44886  97.7995 205.3099 0010400 230.6211 129.4089 14.94898245344510
2019-093L               
1 44889U 19093L   26116.96398958  .00003555  00000+0  33640-3 0  9994
2 44889  97.7552 195.8394 0011121 214.7595 145.2900 14.94246629344153
ELEKTRO-L 3             
1 44903U 19095A   26116.98488505 -.00000107  00000+0  00000+0 0  9994
2 44903   0.1265  75.8362 0001076 297.6048 272.0363  1.00271322 23193
GONETS-M 14             
1 44905U 19096A   26116.93175373  .00000146  00000+0  98082-3 0  9991
2 44905  82.5193 116.4199 0012035 265.4442  94.5263 12.42869032287318
GONETS-M 15             
1 44906U 19096B   26116.96121649  .00000211  00000+0  14526-2 0  9995
2 44906  82.5213 116.8549 0014054 290.2584  69.6984 12.42870155287288
GONETS-M 16             
1 44907U 19096C   26116.98832435  .00000195  00000+0  13374-2 0  9991
2 44907  82.5158 115.8146 0010490 336.7971  23.2634 12.42890761287277
RS-44 & BREEZE-KM R/B   
1 44909U 19096E   26116.79640918  .00000001  00000+0 -32327-4 0  9993
2 44909  82.5260  13.8554 0216361 264.5465  93.0923 12.79747955295770
JILIN-1 KUANFU 01       
1 45016U 20003A   26116.88183381  .00004003  00000+0  24707-3 0  9996
2 45016  97.5045 191.8462 0011315 116.0967 244.1428 15.10421875347586
XINGYUN-2 01            
1 45602U 20028A   26116.97496034  .00002454  00000+0  14824-3 0  9993
2 45602  97.4867 110.4032 0010109  30.2599 329.9213 15.11581522327103
XINGYUN-2 02            
1 45603U 20028B   26116.94463762  .00003203  00000+0  19356-3 0  9991
2 45603  97.5096 123.8430 0012856  88.3039 271.9664 15.11323581327096
HAIYANG-1D              
1 45721U 20036A   26116.83426595 -.00000025  00000+0  63350-5 0  9997
2 45721  98.4521  59.6379 0001792 333.7863  26.3231 14.34224328307618
M2 PATHFINDER           
1 45727U 20037E   26116.77050110  .00002137  00000+0  15729-3 0  9993
2 45727  97.8167 307.4281 0010707 334.6868  25.3831 15.04445875317762
