[{"OBJECT_NAME":"TIANYAN 02","OBJECT_ID":"2019-093D","EPOCH":"2026-04-26T22:06:08.212032","MEAN_MOTION":15.04565506,"ECCENTRICITY":0.0013961,"INCLINATION":97.7912,"RA_OF_ASC_NODE":211.2549,"ARG_OF_PERICENTER":189.7856,"MEAN_ANOMALY":170.31,"EPHEMERIS_TYPE":0,"CLASSIFICATION_TYPE":"U","NORAD_CAT_ID":44882,"ELEMENT_SET_NO":999,"REV_AT_EPOCH":34490,"BSTAR":0.00054958099,"MEAN_MOTION_DOT":7.664e-5,"MEAN_MOTION_DDOT":0},{"OBJECT_NAME":"CBERS 4A","OBJECT_ID":"2019-093E","EPOCH":"2026-04-26T21:33:21.763584","MEAN_MOTION":14.81619277,"ECCENTRICITY":0.00023359,"INCLINATION":97.7521,"RA_OF_ASC_NODE":185.7789,"ARG_OF_PERICENTER":31.5871,"MEAN_ANOMALY":328.5482,"EPHEMERIS_TYPE":0,"CLASSIFICATION_TYPE":"U","NORAD_CAT_ID":44883,"ELEMENT_SET_NO":999,"REV_AT_EPOCH":34348,"BSTAR":0.00015985151,"MEAN_MOTION_DOT":1.206e-5,"MEAN_MOTION_DDOT":0},{"OBJECT_NAME":"WEILAI 1R","OBJECT_ID":"2019-093F","EPOCH":"2026-04-26T23:16:56.747136","MEAN_MOTION":15.00191115,"ECCENTRICITY":0.00134963,"INCLINATION":97.783,"RA_OF_ASC_NODE":206.8093,"ARG_OF_PERICENTER":200.566,"MEAN_ANOMALY":159.5022,"EPHEMERIS_TYPE":0,"CLASSIFICATION_TYPE":"U","NORAD_CAT_ID":44884,"ELEMENT_SET_NO":999,"REV_AT_EPOCH":34474,"BSTAR":0.00041588666,"MEAN_MOTION_DOT":5.147e-5,"MEAN_MOTION_DDOT":0},{"OBJECT_NAME":"FLORIPASAT-1","OBJECT_ID":"2019-093G","EPOCH":"2026-04-26T23:34:58.478592","MEAN_MOTION":15.03318608,"ECCENTRICITY":0.00102076,"INCLINATION":97.7898,"RA_OF_ASC_NODE":210.8696,"ARG_OF_PERICENTER":235.9795,"MEAN_ANOMALY":124.0461,"EPHEMERIS_TYPE":0,"CLASSIFICATION_TYPE":"U","NORAD_CAT_ID":44885,"ELEMENT_SET_NO":999,"REV_AT_EPOCH":34495,"BSTAR":0.00051780862,"MEAN_MOTION_DOT":6.974e-5,"MEAN_MOTION_DDOT":0},{"OBJECT_NAME":"SHUNTIAN","OBJECT_ID":"2019-093H","EPOCH":"2026-04-26T20:56:44.490624","MEAN_MOTION":14.94898245,"ECCENTRICITY":0.00104006,"INCLINATION":97.7995,"RA_OF_ASC_NODE":205.3099,"ARG_OF_PERICENTER":230.6211,"MEAN_ANOMALY":129.4089,"EPHEMERIS_TYPE":0,"CLASSIFICATION_TYPE":"U","NORAD_CAT_ID":44886,"ELEMENT_SET_NO":999,"REV_AT_EPOCH":34451,"BSTAR":0.00025453152,"MEAN_MOTION_DOT":2.72e-5,"MEAN_MOTION_DDOT":0},{"OBJECT_NAME":"2019-093L","OBJECT_ID":"2019-093L","EPOCH":"2026-04-26T23:08:08.699712","MEAN_MOTION":14.94246629,"ECCENTRICITY":0.00111216,"INCLINATION":97.7552,"RA_OF_ASC_NODE":195.8394,"ARG_OF_PERICENTER":214.7595,"MEAN_ANOMALY":145.29,"EPHEMERIS_TYPE":0,"CLASSIFICATION_TYPE":"U","NORAD_CAT_ID":44889,"ELEMENT_SET_NO":999,"REV_AT_EPOCH":34415,"BSTAR":0.00033639893,"MEAN_MOTION_DOT":3.555e-5,"MEAN_MOTION_DDOT":0},{"OBJECT_NAME":"ELEKTRO-L 3","OBJECT_ID":"2019-095A","EPOCH":"2026-04-26T23:38:14.068320","MEAN_MOTION":1.00271322,"ECCENTRICITY":0.00010765,"INCLINATION":0.1265,"RA_OF_ASC_NODE":75.8362,"ARG_OF_PERICENTER":297.6048,"MEAN_ANOMALY":272.0363,"EPHEMERIS_TYPE":0,"CLASSIFICATION_TYPE":"U","NORAD_CAT_ID":44903,"ELEMENT_SET_NO":999,"REV_AT_EPOCH":2319,"BSTAR":0,"MEAN_MOTION_DOT":-1.07e-6,"MEAN_MOTION_DDOT":0},{"OBJECT_NAME":"GONETS-M 14","OBJECT_ID":"2019-096A","EPOCH":"2026-04-26T22:21:43.522272","MEAN_MOTION":12.42869032,"ECCENTRICITY":0.0012035,"INCLINATION":82.5193,"RA_OF_ASC_NODE":116.4199,"ARG_OF_PERICENTER":265.4442,"MEAN_ANOMALY":94.5263,"EPHEMERIS_TYPE":0,"CLASSIFICATION_TYPE":"U","NORAD_CAT_ID":44905,"ELEMENT_SET_NO":999,"REV_AT_EPOCH":28731,"BSTAR":0.00098081842,"MEAN_MOTION_DOT":1.46e-6,"MEAN_MOTION_DDOT":0},{"OBJECT_NAME":"GONETS-M 15","OBJECT_ID":"2019-096B","EPOCH":"2026-04-26T23:04:09.104736","MEAN_MOTION":12.42870155,"ECCENTRICITY":0.00140547,"INCLINATION":82.5213,"RA_OF_ASC_NODE":116.8549,"ARG_OF_PERICENTER":290.2584,"MEAN_ANOMALY":69.6984,"EPHEMERIS_TYPE":0,"CLASSIFICATION_TYPE":"U","NORAD_CAT_ID":44906,"ELEMENT_SET_NO":999,"REV_AT_EPOCH":28728,"BSTAR":0.0014526454,"MEAN_MOTION_DOT":2.11e-6,"MEAN_MOTION_DDOT":0},{"OBJECT_NAME":"GONETS-M 16","OBJECT_ID":"2019-096C","EPOCH":"2026-04-26T23:43:11.223840","MEAN_MOTION":12.42890761,"ECCENTRICITY":0.00104908,"INCLINATION":82.5158,"RA_OF_ASC_NODE":115.8146,"ARG_OF_PERICENTER":336.7971,"MEAN_ANOMALY":23.2634,"EPHEMERIS_TYPE":0,"CLASSIFICATION_TYPE":"U","NORAD_CAT_ID":44907,"ELEMENT_SET_NO":999,"REV_AT_EPOCH":28727,"BSTAR":0.001337379,"MEAN_MOTION_DOT":1.95e-6,"MEAN_MOTION_DDOT":0},{"OBJECT_NAME":"RS-44 & BREEZE-KM R/B","OBJECT_ID":"2019-096E","EPOCH":"2026-04-26T19:06:49.753152","MEAN_MOTION":12.79747955,"ECCENTRICITY":0.0216361,"INCLINATION":82.526,"RA_OF_ASC_NODE":13.8554,"ARG_OF_PERICENTER":264.5465,"MEAN_ANOMALY":93.0923,"EPHEMERIS_TYPE":0,"CLASSIFICATION_TYPE":"U","NORAD_CAT_ID":44909,"ELEMENT_SET_NO":999,"REV_AT_EPOCH":29577,"BSTAR":-3.2327107e-5,"MEAN_MOTION_DOT":1.0e-8,"MEAN_MOTION_DDOT":0},{"OBJECT_NAME":"JILIN-1 KUANFU 01","OBJECT_ID":"2020-003A","EPOCH":"2026-04-26T21:09:50.441184","MEAN_MOTION":15.10421875,"ECCENTRICITY":0.00113159,"INCLINATION":97.5045,"RA_OF_ASC_NODE":191.8462,"ARG_OF_PERICENTER":116.0967,"MEAN_ANOMALY":244.1428,"EPHEMERIS_TYPE":0,"CLASSIFICATION_TYPE":"U","NORAD_CAT_ID":45016,"ELEMENT_SET_NO":999,"REV_AT_EPOCH":34758,"BSTAR":0.00024707038,"MEAN_MOTION_DOT":4.003e-5,"MEAN_MOTION_DDOT":0},{"OBJECT_NAME":"XINGYUN-2 01","OBJECT_ID":"2020-028A","EPOCH":"2026-04-26T23:23:56.573376","MEAN_MOTION":15.11581522,"ECCENTRICITY":0.00101096,"INCLINATION":97.4867,"RA_OF_ASC_NODE":110.4032,"ARG_OF_PERICENTER":30.2599,"MEAN_ANOMALY":329.9213,"EPHEMERIS_TYPE":0,"CLASSIFICATION_TYPE":"U","NORAD_CAT_ID":45602,"ELEMENT_SET_NO":999,"REV_AT_EPOCH":32710,"BSTAR":0.00014824469,"MEAN_MOTION_DOT":2.454e-5,"MEAN_MOTION_DDOT":0},{"OBJECT_NAME":"XINGYUN-2 02","OBJECT_ID":"2020-028B","EPOCH":"2026-04-26T22:40:16.690368","MEAN_MOTION":15.11323581,"ECCENTRICITY":0.0012856,"INCLINATION":97.5096,"RA_OF_ASC_NODE":123.843,"ARG_OF_PERICENTER":88.3039,"MEAN_ANOMALY":271.9664,"EPHEMERIS_TYPE":0,"CLASSIFICATION_TYPE":"U","NORAD_CAT_ID":45603,"ELEMENT_SET_NO":999,"REV_AT_EPOCH":32709,"BSTAR":0.00019356101,"MEAN_MOTION_DOT":3.203e-5,"MEAN_MOTION_DDOT":0},{"OBJECT_NAME":"HAIYANG-1D","OBJECT_ID":"2020-036A","EPOCH":"2026-04-26T20:01:20.578080","MEAN_MOTION":14.34224328,"ECCENTRICITY":0.00017924,"INCLINATION":98.4521,"RA_OF_ASC_NODE":59.6379,"ARG_OF_PERICENTER":333.7863,"MEAN_ANOMALY":26.3231,"EPHEMERIS_TYPE":0,"CLASSIFICATION_TYPE":"U","NORAD_CAT_ID":45721,"ELEMENT_SET_NO":999,"REV_AT_EPOCH":30761,"BSTAR":6.334993e-6,"MEAN_MOTION_DOT":-2.5e-7,"MEAN_MOTION_DDOT":0},{"OBJECT_NAME":"M2 PATHFINDER","OBJECT_ID":"2020-037E","EPOCH":"2026-04-26T18:29:31.295040","MEAN_MOTION":15.04445875,"ECCENTRICITY":0.00107072,"INCLINATION":97.8167,"RA_OF_ASC_NODE":307.4281,"ARG_OF_PERICENTER":334.6868,"MEAN_ANOMALY":25.3831,"EPHEMERIS_TYPE":0,"CLASSIFICATION_TYPE":"U","NORAD_CAT_ID":45727,"ELEMENT_SET_NO":999,"REV_AT_EPOCH":31776,"BSTAR":0.0001572868,"MEAN_MOTION_DOT":2.137e-5,"MEAN_MOTION_DDOT":0}]
